{
  "type": "FeatureCollection",
  "features": [
    {
      "type": "Feature",
      "properties": {
        "norad_id": 29268,
        "name": "ARIRANG-2 (KOMPSAT-2)",
        "group": "resource",
        "lat": 13.296182905106535,
        "lon": 171.49470253866622,
        "alt_km": 674.6739543805734,
        "timestamp": "2025-12-10T18:56:59.718424+00:00",
        "meta_object_name": "ARIRANG-2 (KOMPSAT-2)",
        "meta_object_id": "2006-031A",
        "meta_epoch": "2025-12-10T12:40:46.657056",
        "meta_mean_motion": 14.64490401,
        "meta_eccentricity": 0.0013625,
        "meta_inclination": 97.8261,
        "meta_ra_of_asc_node": 173.1089,
        "meta_arg_of_pericenter": 316.7078,
        "meta_mean_anomaly": 120.1089,
        "meta_ephemeris_type": 0,
        "meta_classification_type": "U",
        "meta_norad_cat_id": 29268,
        "meta_element_set_no": 999,
        "meta_rev_at_epoch": 3386,
        "meta_bstar": 0.00011556,
        "meta_mean_motion_dot": 5.68e-06,
        "meta_mean_motion_ddot": 0,
        "tle_line1": "1 29268U 06031A   25344.52831779  .00000568  00000+0  11556-3 0  9996",
        "tle_line2": "2 29268  97.8261 173.1089 0013625 316.7078 120.1089 14.64490401 33864"
      },
      "geometry": {
        "type": "Point",
        "coordinates": [
          171.49470253866622,
          13.296182905106535
        ]
      }
    },
    {
      "type": "Feature",
      "properties": {
        "norad_id": 29709,
        "name": "LAPAN-TUBSAT",
        "group": "resource",
        "lat": 20.036242100774157,
        "lon": 157.89262296550135,
        "alt_km": 609.9118728166095,
        "timestamp": "2025-12-10T18:56:59.718435+00:00",
        "meta_object_name": "LAPAN-TUBSAT",
        "meta_object_id": "2007-001A",
        "meta_epoch": "2025-12-10T11:46:09.773760",
        "meta_mean_motion": 14.8566685,
        "meta_eccentricity": 0.0013715,
        "meta_inclination": 98.1258,
        "meta_ra_of_asc_node": 334.6005,
        "meta_arg_of_pericenter": 80.5622,
        "meta_mean_anomaly": 279.7142,
        "meta_ephemeris_type": 0,
        "meta_classification_type": "U",
        "meta_norad_cat_id": 29709,
        "meta_element_set_no": 999,
        "meta_rev_at_epoch": 2313,
        "meta_bstar": 0.00016015,
        "meta_mean_motion_dot": 1.333e-05,
        "meta_mean_motion_ddot": 0,
        "tle_line1": "1 29709U 07001A   25344.49039090  .00001333  00000+0  16015-3 0  9992",
        "tle_line2": "2 29709  98.1258 334.6005 0013715  80.5622 279.7142 14.85666850 23133"
      },
      "geometry": {
        "type": "Point",
        "coordinates": [
          157.89262296550135,
          20.036242100774157
        ]
      }
    },
    {
      "type": "Feature",
      "properties": {
        "norad_id": 31113,
        "name": "HAIYANG-1B",
        "group": "resource",
        "lat": 66.74854014848314,
        "lon": -50.79236568896701,
        "alt_km": 772.6516831673725,
        "timestamp": "2025-12-10T18:56:59.718445+00:00",
        "meta_object_name": "HAIYANG-1B",
        "meta_object_id": "2007-010A",
        "meta_epoch": "2025-12-10T11:55:13.880352",
        "meta_mean_motion": 14.3096387,
        "meta_eccentricity": 0.0014358,
        "meta_inclination": 98.3312,
        "meta_ra_of_asc_node": 328.8674,
        "meta_arg_of_pericenter": 44.2073,
        "meta_mean_anomaly": 316.0255,
        "meta_ephemeris_type": 0,
        "meta_classification_type": "U",
        "meta_norad_cat_id": 31113,
        "meta_element_set_no": 999,
        "meta_rev_at_epoch": 97364,
        "meta_bstar": 9.824e-05,
        "meta_mean_motion_dot": 2.17e-06,
        "meta_mean_motion_ddot": 0,
        "tle_line1": "1 31113U 07010A   25344.49668843  .00000217  00000+0  98240-4 0  9999",
        "tle_line2": "2 31113  98.3312 328.8674 0014358  44.2073 316.0255 14.30963870973648"
      },
      "geometry": {
        "type": "Point",
        "coordinates": [
          -50.79236568896701,
          66.74854014848314
        ]
      }
    },
    {
      "type": "Feature",
      "properties": {
        "norad_id": 31598,
        "name": "COSMO-SKYMED 1",
        "group": "resource",
        "lat": 44.25660691854938,
        "lon": 162.4167253714923,
        "alt_km": 575.7936849831176,
        "timestamp": "2025-12-10T18:56:59.718455+00:00",
        "meta_object_name": "COSMO-SKYMED 1",
        "meta_object_id": "2007-023A",
        "meta_epoch": "2025-12-10T12:19:41.361024",
        "meta_mean_motion": 14.95736577,
        "meta_eccentricity": 0.0001062,
        "meta_inclination": 97.8835,
        "meta_ra_of_asc_node": 169.8985,
        "meta_arg_of_pericenter": 85.6031,
        "meta_mean_anomaly": 274.5311,
        "meta_ephemeris_type": 0,
        "meta_classification_type": "U",
        "meta_norad_cat_id": 31598,
        "meta_element_set_no": 999,
        "meta_rev_at_epoch": 157,
        "meta_bstar": 0.00050786,
        "meta_mean_motion_dot": 5.601e-05,
        "meta_mean_motion_ddot": 0,
        "tle_line1": "1 31598U 07023A   25344.51367316  .00005601  00000+0  50786-3 0  9998",
        "tle_line2": "2 31598  97.8835 169.8985 0001062  85.6031 274.5311 14.95736577  1576"
      },
      "geometry": {
        "type": "Point",
        "coordinates": [
          162.4167253714923,
          44.25660691854938
        ]
      }
    },
    {
      "type": "Feature",
      "properties": {
        "norad_id": 31698,
        "name": "TERRASAR-X",
        "group": "resource",
        "lat": -74.8947911461746,
        "lon": 141.22074940186755,
        "alt_km": 517.0816321658913,
        "timestamp": "2025-12-10T18:56:59.718466+00:00",
        "meta_object_name": "TERRASAR-X",
        "meta_object_id": "2007-026A",
        "meta_epoch": "2025-12-09T11:47:13.204320",
        "meta_mean_motion": 15.19146544,
        "meta_eccentricity": 0.0001961,
        "meta_inclination": 97.4451,
        "meta_ra_of_asc_node": 348.9193,
        "meta_arg_of_pericenter": 86.8081,
        "meta_mean_anomaly": 273.3378,
        "meta_ephemeris_type": 0,
        "meta_classification_type": "U",
        "meta_norad_cat_id": 31698,
        "meta_element_set_no": 999,
        "meta_rev_at_epoch": 2442,
        "meta_bstar": 0.00012751,
        "meta_mean_motion_dot": 2.611e-05,
        "meta_mean_motion_ddot": 0,
        "tle_line1": "1 31698U 07026A   25343.49112505  .00002611  00000+0  12751-3 0  9994",
        "tle_line2": "2 31698  97.4451 348.9193 0001961  86.8081 273.3378 15.19146544 24429"
      },
      "geometry": {
        "type": "Point",
        "coordinates": [
          141.22074940186755,
          -74.8947911461746
        ]
      }
    },
    {
      "type": "Feature",
      "properties": {
        "norad_id": 32060,
        "name": "WORLDVIEW-1 (WV-1)",
        "group": "resource",
        "lat": -39.179100285920995,
        "lon": -83.76862896895368,
        "alt_km": 498.6486384567643,
        "timestamp": "2025-12-10T18:56:59.718485+00:00",
        "meta_object_name": "WORLDVIEW-1 (WV-1)",
        "meta_object_id": "2007-041A",
        "meta_epoch": "2025-12-10T06:57:50.790816",
        "meta_mean_motion": 15.24623427,
        "meta_eccentricity": 7.25e-05,
        "meta_inclination": 97.3835,
        "meta_ra_of_asc_node": 101.8056,
        "meta_arg_of_pericenter": 104.6633,
        "meta_mean_anomaly": 255.4685,
        "meta_ephemeris_type": 0,
        "meta_classification_type": "U",
        "meta_norad_cat_id": 32060,
        "meta_element_set_no": 999,
        "meta_rev_at_epoch": 1410,
        "meta_bstar": 0.00052474,
        "meta_mean_motion_dot": 0.00012888,
        "meta_mean_motion_ddot": 0,
        "tle_line1": "1 32060U 07041A   25344.29017119  .00012888  00000+0  52474-3 0  9992",
        "tle_line2": "2 32060  97.3835 101.8056 0000725 104.6633 255.4685 15.24623427 14103"
      },
      "geometry": {
        "type": "Point",
        "coordinates": [
          -83.76862896895368,
          -39.179100285920995
        ]
      }
    },
    {
      "type": "Feature",
      "properties": {
        "norad_id": 32289,
        "name": "YAOGAN-3",
        "group": "resource",
        "lat": -63.3141303310395,
        "lon": 27.33472308343384,
        "alt_km": 606.3126624519382,
        "timestamp": "2025-12-10T18:56:59.718505+00:00",
        "meta_object_name": "YAOGAN-3",
        "meta_object_id": "2007-055A",
        "meta_epoch": "2025-12-10T12:47:27.681792",
        "meta_mean_motion": 14.89840704,
        "meta_eccentricity": 0.0001359,
        "meta_inclination": 97.8365,
        "meta_ra_of_asc_node": 11.1777,
        "meta_arg_of_pericenter": 72.1349,
        "meta_mean_anomaly": 288.0017,
        "meta_ephemeris_type": 0,
        "meta_classification_type": "U",
        "meta_norad_cat_id": 32289,
        "meta_element_set_no": 999,
        "meta_rev_at_epoch": 97776,
        "meta_bstar": 0.00043299,
        "meta_mean_motion_dot": 4.104e-05,
        "meta_mean_motion_ddot": 0,
        "tle_line1": "1 32289U 07055A   25344.53295928  .00004104  00000+0  43299-3 0  9990",
        "tle_line2": "2 32289  97.8365  11.1777 0001359  72.1349 288.0017 14.89840704977769"
      },
      "geometry": {
        "type": "Point",
        "coordinates": [
          27.33472308343384,
          -63.3141303310395
        ]
      }
    }
  ]
}